[{"OBJECT_NAME":"STARLINK-1647","OBJECT_ID":"2021-024B","EPOCH":"2026-03-09T22:35:10.254624","MEAN_MOTION":15.30190382,"ECCENTRICITY":0.00013757,"INCLINATION":53.16,"RA_OF_ASC_NODE":331.2366,"ARG_OF_PERICENTER":119.5555,"MEAN_ANOMALY":240.5583,"EPHEMERIS_TYPE":0,"CLASSIFICATION_TYPE":"U","NORAD_CAT_ID":47978,"ELEMENT_SET_NO":999,"REV_AT_EPOCH":27466,"BSTAR":-1.2924482e-5,"MEAN_MOTION_DOT":-7.42e-6,"MEAN_MOTION_DDOT":0},{"OBJECT_NAME":"HERMES-3","OBJECT_ID":"2025-052BR","EPOCH":"2026-03-09T22:30:01.073952","MEAN_MOTION":15.30039786,"ECCENTRICITY":0.00079928,"INCLINATION":97.3987,"RA_OF_ASC_NODE":324.6131,"ARG_OF_PERICENTER":112.9583,"MEAN_ANOMALY":247.2502,"EPHEMERIS_TYPE":0,"CLASSIFICATION_TYPE":"U","NORAD_CAT_ID":63835,"ELEMENT_SET_NO":999,"REV_AT_EPOCH":5486,"BSTAR":0.0006995793,"MEAN_MOTION_DOT":0.00020316,"MEAN_MOTION_DDOT":0}]
